{
  "type": "FeatureCollection",
  "features": [
    {
      "type": "Feature",
      "properties": {
        "norad_id": 34846,
        "name": "COSMOS 2251 DEB",
        "group": "cosmos-2251-debris",
        "lat": -59.971717243741416,
        "lon": -123.39929749203807,
        "alt_km": 726.8414325217127,
        "timestamp": "2025-12-10T07:43:55.174514+00:00",
        "meta_object_name": "COSMOS 2251 DEB",
        "meta_object_id": "1993-036ABQ",
        "meta_epoch": "2025-12-08T22:50:43.848960",
        "meta_mean_motion": 14.47175679,
        "meta_eccentricity": 0.00260293,
        "meta_inclination": 74.031,
        "meta_ra_of_asc_node": 268.8582,
        "meta_arg_of_pericenter": 335.7831,
        "meta_mean_anomaly": 24.2102,
        "meta_ephemeris_type": 0,
        "meta_classification_type": "U",
        "meta_norad_cat_id": 34846,
        "meta_element_set_no": 999,
        "meta_rev_at_epoch": 87349,
        "meta_bstar": 0.0012224072,
        "meta_mean_motion_dot": 4.457e-05,
        "meta_mean_motion_ddot": 0,
        "tle_line1": "1 34846U 93036ABQ 25342.95189640  .00004457  00000+0  12224-2 0  9996",
        "tle_line2": "2 34846  74.0310 268.8582 0026029 335.7831  24.2102 14.47175679873493"
      },
      "geometry": {
        "type": "Point",
        "coordinates": [
          -123.39929749203807,
          -59.971717243741416
        ]
      }
    },
    {
      "type": "Feature",
      "properties": {
        "norad_id": 34852,
        "name": "COSMOS 2251 DEB",
        "group": "cosmos-2251-debris",
        "lat": 73.99543270606755,
        "lon": 0.8766440198662447,
        "alt_km": 758.9743566667112,
        "timestamp": "2025-12-10T07:43:55.174524+00:00",
        "meta_object_name": "COSMOS 2251 DEB",
        "meta_object_id": "1993-036ABW",
        "meta_epoch": "2025-12-09T12:55:56.817120",
        "meta_mean_motion": 14.37001055,
        "meta_eccentricity": 0.0016022,
        "meta_inclination": 74.0329,
        "meta_ra_of_asc_node": 268.8581,
        "meta_arg_of_pericenter": 12.6756,
        "meta_mean_anomaly": 347.4797,
        "meta_ephemeris_type": 0,
        "meta_classification_type": "U",
        "meta_norad_cat_id": 34852,
        "meta_element_set_no": 999,
        "meta_rev_at_epoch": 87488,
        "meta_bstar": 0.00021796,
        "meta_mean_motion_dot": 6.21e-06,
        "meta_mean_motion_ddot": 0,
        "tle_line1": "1 34852U 93036ABW 25343.53885205  .00000621  00000+0  21796-3 0  9992",
        "tle_line2": "2 34852  74.0329 268.8581 0016022  12.6756 347.4797 14.37001055874887"
      },
      "geometry": {
        "type": "Point",
        "coordinates": [
          0.8766440198662447,
          73.99543270606755
        ]
      }
    },
    {
      "type": "Feature",
      "properties": {
        "norad_id": 34854,
        "name": "COSMOS 2251 DEB",
        "group": "cosmos-2251-debris",
        "lat": 10.286684384366996,
        "lon": 166.30116880201382,
        "alt_km": 645.3870415846013,
        "timestamp": "2025-12-10T07:43:55.174534+00:00",
        "meta_object_name": "COSMOS 2251 DEB",
        "meta_object_id": "1993-036ABY",
        "meta_epoch": "2025-12-09T18:40:30.965088",
        "meta_mean_motion": 14.76581038,
        "meta_eccentricity": 0.0066169,
        "meta_inclination": 74.0286,
        "meta_ra_of_asc_node": 164.3876,
        "meta_arg_of_pericenter": 276.6411,
        "meta_mean_anomaly": 82.7235,
        "meta_ephemeris_type": 0,
        "meta_classification_type": "U",
        "meta_norad_cat_id": 34854,
        "meta_element_set_no": 999,
        "meta_rev_at_epoch": 71838,
        "meta_bstar": 0.0010468,
        "meta_mean_motion_dot": 7.547e-05,
        "meta_mean_motion_ddot": 0,
        "tle_line1": "1 34854U 93036ABY 25343.77813617  .00007547  00000+0  10468-2 0  9995",
        "tle_line2": "2 34854  74.0286 164.3876 0066169 276.6411  82.7235 14.76581038718380"
      },
      "geometry": {
        "type": "Point",
        "coordinates": [
          166.30116880201382,
          10.286684384366996
        ]
      }
    },
    {
      "type": "Feature",
      "properties": {
        "norad_id": 34856,
        "name": "COSMOS 2251 DEB",
        "group": "cosmos-2251-debris",
        "lat": -8.083725531437139,
        "lon": -87.8391051912265,
        "alt_km": 534.7603495069288,
        "timestamp": "2025-12-10T07:43:55.174543+00:00",
        "meta_object_name": "COSMOS 2251 DEB",
        "meta_object_id": "1993-036ACA",
        "meta_epoch": "2025-12-09T08:49:27.914880",
        "meta_mean_motion": 15.05764705,
        "meta_eccentricity": 0.00333361,
        "meta_inclination": 73.9975,
        "meta_ra_of_asc_node": 91.7859,
        "meta_arg_of_pericenter": 229.9156,
        "meta_mean_anomaly": 186.6927,
        "meta_ephemeris_type": 0,
        "meta_classification_type": "U",
        "meta_norad_cat_id": 34856,
        "meta_element_set_no": 999,
        "meta_rev_at_epoch": 89061,
        "meta_bstar": 0.0025921632,
        "meta_mean_motion_dot": 0.00038187,
        "meta_mean_motion_ddot": 0,
        "tle_line1": "1 34856U 93036ACA 25343.36768420  .00038187  00000+0  25922-2 0  9998",
        "tle_line2": "2 34856  73.9975  91.7859 0033336 229.9156 186.6927 15.05764705890612"
      },
      "geometry": {
        "type": "Point",
        "coordinates": [
          -87.8391051912265,
          -8.083725531437139
        ]
      }
    },
    {
      "type": "Feature",
      "properties": {
        "norad_id": 34857,
        "name": "COSMOS 2251 DEB",
        "group": "cosmos-2251-debris",
        "lat": -63.07815724836235,
        "lon": -34.19408207994044,
        "alt_km": 658.0192156927078,
        "timestamp": "2025-12-10T07:43:55.174554+00:00",
        "meta_object_name": "COSMOS 2251 DEB",
        "meta_object_id": "1993-036ACB",
        "meta_epoch": "2025-12-09T19:48:39.565152",
        "meta_mean_motion": 14.58840936,
        "meta_eccentricity": 0.0065957,
        "meta_inclination": 74.0156,
        "meta_ra_of_asc_node": 112.3877,
        "meta_arg_of_pericenter": 237.3653,
        "meta_mean_anomaly": 282.9219,
        "meta_ephemeris_type": 0,
        "meta_classification_type": "U",
        "meta_norad_cat_id": 34857,
        "meta_element_set_no": 999,
        "meta_rev_at_epoch": 87858,
        "meta_bstar": 0.0019859,
        "meta_mean_motion_dot": 9.559e-05,
        "meta_mean_motion_ddot": 0,
        "tle_line1": "1 34857U 93036ACB 25343.82545793  .00009559  00000+0  19859-2 0  9999",
        "tle_line2": "2 34857  74.0156 112.3877 0065957 237.3653 282.9219 14.58840936878589"
      },
      "geometry": {
        "type": "Point",
        "coordinates": [
          -34.19408207994044,
          -63.07815724836235
        ]
      }
    },
    {
      "type": "Feature",
      "properties": {
        "norad_id": 34859,
        "name": "COSMOS 2251 DEB",
        "group": "cosmos-2251-debris",
        "lat": 69.55251800127128,
        "lon": 34.87147717665057,
        "alt_km": 517.4547747024262,
        "timestamp": "2025-12-10T07:43:55.174564+00:00",
        "meta_object_name": "COSMOS 2251 DEB",
        "meta_object_id": "1993-036ACD",
        "meta_epoch": "2025-12-09T11:20:30.954336",
        "meta_mean_motion": 15.13853053,
        "meta_eccentricity": 0.00030012,
        "meta_inclination": 74.0301,
        "meta_ra_of_asc_node": 346.4528,
        "meta_arg_of_pericenter": 330.2241,
        "meta_mean_anomaly": 158.4076,
        "meta_ephemeris_type": 0,
        "meta_classification_type": "U",
        "meta_norad_cat_id": 34859,
        "meta_element_set_no": 999,
        "meta_rev_at_epoch": 88309,
        "meta_bstar": 0.006295896,
        "meta_mean_motion_dot": 0.00115691,
        "meta_mean_motion_ddot": 0,
        "tle_line1": "1 34859U 93036ACD 25343.47258049  .00115691  00000+0  62959-2 0  9991",
        "tle_line2": "2 34859  74.0301 346.4528 0003001 330.2241 158.4076 15.13853053883090"
      },
      "geometry": {
        "type": "Point",
        "coordinates": [
          34.87147717665057,
          69.55251800127128
        ]
      }
    },
    {
      "type": "Feature",
      "properties": {
        "norad_id": 34861,
        "name": "COSMOS 2251 DEB",
        "group": "cosmos-2251-debris",
        "lat": 73.86961007465553,
        "lon": 138.06431064661422,
        "alt_km": 548.4748458868153,
        "timestamp": "2025-12-10T07:43:55.174574+00:00",
        "meta_object_name": "COSMOS 2251 DEB",
        "meta_object_id": "1993-036ACF",
        "meta_epoch": "2025-12-09T16:02:04.030944",
        "meta_mean_motion": 15.02261896,
        "meta_eccentricity": 0.0006601,
        "meta_inclination": 74.0189,
        "meta_ra_of_asc_node": 57.1242,
        "meta_arg_of_pericenter": 56.5774,
        "meta_mean_anomaly": 95.4156,
        "meta_ephemeris_type": 0,
        "meta_classification_type": "U",
        "meta_norad_cat_id": 34861,
        "meta_element_set_no": 999,
        "meta_rev_at_epoch": 88046,
        "meta_bstar": 0.0032532,
        "meta_mean_motion_dot": 0.00043186,
        "meta_mean_motion_ddot": 0,
        "tle_line1": "1 34861U 93036ACF 25343.66810221  .00043186  00000+0  32532-2 0  9994",
        "tle_line2": "2 34861  74.0189  57.1242 0006601  56.5774  95.4156 15.02261896880467"
      },
      "geometry": {
        "type": "Point",
        "coordinates": [
          138.06431064661422,
          73.86961007465553
        ]
      }
    }
  ]
}